$$SOE
2460154.500000000, A.D. 2023-Jul-29 00:00:00.0000, 3.440994147032115E+08, 5.684248724200983E+07, 5.855491789812794E+07,
2460161.500000000, A.D. 2023-Aug-05 00:00:00.0000, 3.406794212995850E+08, 6.852922784484556E+07, 5.753655819376283E+07,
2460168.500000000, A.D. 2023-Aug-12 00:00:00.0000, 3.368811184713898E+08, 8.013996866507021E+07, 5.645425635434875E+07,
2460175.500000000, A.D. 2023-Aug-19 00:00:00.0000, 3.327042935733681E+08, 9.166075879762268E+07, 5.530847124123588E+07,
2460182.500000000, A.D. 2023-Aug-26 00:00:00.0000, 3.281492948783423E+08, 1.030774517548406E+08, 5.409976747524263E+07,
2460189.500000000, A.D. 2023-Sep-02 00:00:00.0000, 3.232170542514348E+08, 1.143757313669312E+08, 5.282881853014611E+07,
2460196.500000000, A.D. 2023-Sep-09 00:00:00.0000, 3.179091087509434E+08, 1.255411398863643E+08, 5.149640954317942E+07,
2460203.500000000, A.D. 2023-Sep-16 00:00:00.0000, 3.122276210973704E+08, 1.365591082195472E+08, 5.010343978308826E+07,
2460210.500000000, A.D. 2023-Sep-23 00:00:00.0000, 3.061753991922490E+08, 1.474149885252439E+08, 4.865092471966810E+07,
2460217.500000000, A.D. 2023-Sep-30 00:00:00.0000, 2.997559140991553E+08, 1.580940902932475E+08, 4.713999777850199E+07,
2460224.500000000, A.D. 2023-Oct-07 00:00:00.0000, 2.929733138779529E+08, 1.685817192638304E+08, 4.557191190930463E+07,
2460231.500000000, A.D. 2023-Oct-14 00:00:00.0000, 2.858324340713527E+08, 1.788632157556816E+08, 4.394804056494123E+07,
2460238.500000000, A.D. 2023-Oct-21 00:00:00.0000, 2.783388078394631E+08, 1.889239938498296E+08, 4.226987789072029E+07,
2460245.500000000, A.D. 2023-Oct-28 00:00:00.0000, 2.704986740911170E+08, 1.987495835033990E+08, 4.053903840685557E+07,
2460252.500000000, A.D. 2023-Nov-04 00:00:00.0000, 2.623189821517231E+08, 2.083256746052719E+08, 3.875725620736296E+07,
2460259.500000000, A.D. 2023-Nov-11 00:00:00.0000, 2.538073929511545E+08, 2.176381621236511E+08, 3.692638358421725E+07,
2460266.500000000, A.D. 2023-Nov-18 00:00:00.0000, 2.449722767745937E+08, 2.266731920031162E+08, 3.504838902930494E+07,
2460273.500000000, A.D. 2023-Nov-25 00:00:00.0000, 2.358227074966201E+08, 2.354172075323043E+08, 3.312535459335327E+07,
2460280.500000000, A.D. 2023-Dec-02 00:00:00.0000, 2.263684532052232E+08, 2.438569958486985E+08, 3.115947258971889E+07,
2460287.500000000, A.D. 2023-Dec-09 00:00:00.0000, 2.166199632079233E+08, 2.519797341802158E+08, 2.915304162994313E+07,
2460294.500000000, A.D. 2023-Dec-16 00:00:00.0000, 2.065883516608229E+08, 2.597730354788359E+08, 2.710846197173981E+07,
2460301.500000000, A.D. 2023-Dec-23 00:00:00.0000, 1.962853781643372E+08, 2.672249937633853E+08, 2.502823021614416E+07,
2460308.500000000, A.D. 2023-Dec-30 00:00:00.0000, 1.857234240189087E+08, 2.743242298356215E+08, 2.291493358024175E+07,
2460315.500000000, A.D. 2024-Jan-06 00:00:00.0000, 1.749154624328282E+08, 2.810599346237692E+08, 2.077124374090810E+07,
2460322.500000000, A.D. 2024-Jan-13 00:00:00.0000, 1.638750259718047E+08, 2.874219079819807E+08, 1.859990984683250E+07,
2460329.500000000, A.D. 2024-Jan-20 00:00:00.0000, 1.526161726412286E+08, 2.934005956683778E+08, 1.640375087933528E+07,
2460336.500000000, A.D. 2024-Jan-27 00:00:00.0000, 1.411534487720797E+08, 2.989871248021040E+08, 1.418564764800400E+07,
2460343.500000000, A.D. 2024-Feb-03 00:00:00.0000, 1.295018485208163E+08, 3.041733365263301E+08, 1.194853443703017E+07,
2460350.500000000, A.D. 2024-Feb-10 00:00:00.0000, 1.176767705389058E+08, 3.089518152916874E+08, 9.695390312966779E+06,
2460357.500000000, A.D. 2024-Feb-17 00:00:00.0000, 1.056939722634422E+08, 3.133159145067704E+08, 7.429230146467686E+06,
2460364.500000000, A.D. 2024-Feb-24 00:00:00.0000, 9.356952220700492E+07, 3.172597783466520E+08, 5.153095414331600E+06,
2460371.500000000, A.D. 2024-Mar-02 00:00:00.0000, 8.131975064266232E+07, 3.207783595043021E+08, 2.870044847724691E+06,
2460378.500000000, A.D. 2024-Mar-09 00:00:00.0000, 6.896119920807543E+07, 3.238674326838616E+08, 5.831449817025363E+05,
2460385.500000000, A.D. 2024-Mar-16 00:00:00.0000, 5.651057022172450E+07, 3.265236039425248E+08, -1.704539340466738E+06,
2460392.500000000, A.D. 2024-Mar-23 00:00:00.0000, 4.398467601398636E+07, 3.287443169500890E+08, -3.989954335385337E+06,
2460399.500000000, A.D. 2024-Mar-30 00:00:00.0000, 3.140038644311658E+07, 3.305278561415640E+08, -6.270066246219993E+06,
2460406.500000000, A.D. 2024-Apr-06 00:00:00.0000, 1.877457524959626E+07, 3.318733434340749E+08, -8.541870137087345E+06,
2460413.500000000, A.D. 2024-Apr-13 00:00:00.0000, 6.124069181220864E+06, 3.327807294459253E+08, -1.080239870639792E+07,
2460420.500000000, A.D. 2024-Apr-20 00:00:00.0000, -6.534400686664911E+06, 3.332507820418593E+08, -1.304873075382918E+07,
2460427.500000000, A.D. 2024-Apr-27 00:00:00.0000, -1.918424660016397E+07, 3.332850718176893E+08, -1.527799915283602E+07,
2460434.500000000, A.D. 2024-May-04 00:00:00.0000, -3.180907033531983E+07, 3.328859540319875E+08, -1.748739834465788E+07,
2460441.500000000, A.D. 2024-May-11 00:00:00.0000, -4.439270743616046E+07, 3.320565471280104E+08, -1.967419134103280E+07,
2460448.500000000, A.D. 2024-May-18 00:00:00.0000, -5.691926914175639E+07, 3.308007081394489E+08, -2.183571620535758E+07,
2460455.500000000, A.D. 2024-May-25 00:00:00.0000, -6.937318175475095E+07, 3.291230052663360E+08, -2.396939198627208E+07,
2460462.500000000, A.D. 2024-Jun-01 00:00:00.0000, -8.173922320591162E+07, 3.270286878734733E+08, -2.607272409224825E+07,
2460469.500000000, A.D. 2024-Jun-08 00:00:00.0000, -9.400255642039227E+07, 3.245236542093789E+08, -2.814330911733223E+07,
2460476.500000000, A.D. 2024-Jun-15 00:00:00.0000, -1.061487589756282E+08, 3.216144177181240E+08, -3.017883910300128E+07,
2460483.500000000, A.D. 2024-Jun-22 00:00:00.0000, -1.181638499809450E+08, 3.183080734492750E+08, -3.217710504800771E+07,
2460490.500000000, A.D. 2024-Jun-29 00:00:00.0000, -1.300343162535830E+08, 3.146122630678318E+08, -3.413599962579228E+07,
2460497.500000000, A.D. 2024-Jul-06 00:00:00.0000, -1.417471351324259E+08, 3.105351362910969E+08, -3.605351955980799E+07,
2460504.500000000, A.D. 2024-Jul-13 00:00:00.0000, -1.532897920149817E+08, 3.060853118667802E+08, -3.792776761577851E+07,
2460511.500000000, A.D. 2024-Jul-20 00:00:00.0000, -1.646502946691687E+08, 3.012718395327954E+08, -3.975695395522821E+07,
2460518.500000000, A.D. 2024-Jul-27 00:00:00.0000, -1.758171850627695E+08, 2.961041622748911E+08, -4.153939689392921E+07,
2460525.500000000, A.D. 2024-Aug-03 00:00:00.0000, -1.867795485451500E+08, 2.905920787641071E+08, -4.327352315058446E+07,
2460532.500000000, A.D. 2024-Aug-10 00:00:00.0000, -1.975270203388392E+08, 2.847457062049828E+08, -4.495786763374701E+07,
2460539.500000000, A.D. 2024-Aug-17 00:00:00.0000, -2.080497894311032E+08, 2.785754438260590E+08, -4.659107280290605E+07,
2460546.500000000, A.D. 2024-Aug-24 00:00:00.0000, -2.183385999884513E+08, 2.720919371744830E+08, -4.817188764187692E+07,
2460553.500000000, A.D. 2024-Aug-31 00:00:00.0000, -2.283847503402955E+08, 2.653060433130404E+08, -4.969916629431387E+07,
2460560.500000000, A.D. 2024-Sep-07 00:00:00.0000, -2.381800893360719E+08, 2.582287971826829E+08, -5.117186641902401E+07,
2460567.500000000, A.D. 2024-Sep-14 00:00:00.0000, -2.477170101660129E+08, 2.508713802409753E+08, -5.258904722617309E+07,
2460574.500000000, A.D. 2024-Sep-21 00:00:00.0000, -2.569884438540140E+08, 2.432450918844073E+08, -5.394986701001367E+07,
2460581.500000000, A.D. 2024-Sep-28 00:00:00.0000, -2.659878530866428E+08, 2.353613205050271E+08, -5.525358043228313E+07,
2460588.500000000, A.D. 2024-Oct-05 00:00:00.0000, -2.747092228763742E+08, 2.272315142358934E+08, -5.649953592325598E+07,
2460595.500000000, A.D. 2024-Oct-12 00:00:00.0000, -2.831470485902799E+08, 2.188671543968229E+08, -5.768717295346894E+07,
2460602.500000000, A.D. 2024-Oct-19 00:00:00.0000, -2.912963232644720E+08, 2.102797313924990E+08, -5.881601906928578E+07,
2460609.500000000, A.D. 2024-Oct-26 00:00:00.0000, -2.991525243941132E+08, 2.014807222705776E+08, -5.988568678368291E+07,
2460616.500000000, A.D. 2024-Nov-02 00:00:00.0000, -3.067116000898886E+08, 1.924815697841699E+08, -6.089587038366762E+07,
2460623.500000000, A.D. 2024-Nov-09 00:00:00.0000, -3.139699546450642E+08, 1.832936629598209E+08, -6.184634268532940E+07,
2460630.500000000, A.D. 2024-Nov-16 00:00:00.0000, -3.209244336194290E+08, 1.739283191417751E+08, -6.273695176098519E+07,
2460637.500000000, A.D. 2024-Nov-23 00:00:00.0000, -3.275723085161113E+08, 1.643967674246035E+08, -6.356761766700792E+07,
2460644.500000000, A.D. 2024-Nov-30 00:00:00.0000, -3.339112609562153E+08, 1.547101333861225E+08, -6.433832921313553E+07,
2460651.500000000, A.D. 2024-Dec-07 00:00:00.0000, -3.399393660352978E+08, 1.448794254894244E+08, -6.504914079350034E+07,
2460658.500000000, A.D. 2024-Dec-14 00:00:00.0000, -3.456550756447564E+08, 1.349155243206217E+08, -6.570016913055258E+07,
2460665.500000000, A.D. 2024-Dec-21 00:00:00.0000, -3.510572041643173E+08, 1.248291733609475E+08, -6.629158983424047E+07,
2460672.500000000, A.D. 2024-Dec-28 00:00:00.0000, -3.561449146315232E+08, 1.146309682654911E+08, -6.682363421211670E+07,
2460679.500000000, A.D. 2025-Jan-04 00:00:00.0000, -3.609177028548684E+08, 1.043313469610649E+08, -6.729658638238758E+07,
2460686.500000000, A.D. 2025-Jan-11 00:00:00.0000, -3.653753813489057E+08, 9.394058215353352E+07, -6.771078039357512E+07,
2460693.500000000, A.D. 2025-Jan-18 00:00:00.0000, -3.695180640630590E+08, 8.346877525781097E+07, -6.806659734940390E+07,
2460700.500000000, A.D. 2025-Jan-25 00:00:00.0000, -3.733461517074146E+08, 7.292585121119671E+07, -6.836446260643296E+07,
2460707.500000000, A.D. 2025-Feb-01 00:00:00.0000, -3.768603175239618E+08, 6.232155407544037E+07, -6.860484306853420E+07,
2460714.500000000, A.D. 2025-Feb-08 00:00:00.0000, -3.800614934765207E+08, 5.166544338307229E+07, -6.878824458504561E+07,
2460721.500000000, A.D. 2025-Feb-15 00:00:00.0000, -3.829508568570215E+08, 4.096689114540617E+07, -6.891520945927843E+07,
$$EOE